CUTE-1 (CO-55)          
1 27844U 03031E   26189.46272727  .00000219  00000+0  11365-3 0  9995
2 27844  98.6739 197.7541 0010666 120.0495 240.1743 14.24348709194707
CUBESAT XI-IV (CO-57)   
1 27848U 03031J   26189.46187375  .00000184  00000+0  99678-4 0  9998
2 27848  98.6772 197.4488 0010258 137.0463 223.1519 14.23632050194408
CUBESAT XI-V            
1 28895U 05043F   26189.39764200  .00001087  00000+0  17855-3 0  9995
2 28895  98.3007 345.4679 0015004 135.1728 225.0694 14.72690312104879
CUTE-1.7+APD II (CO-65) 
1 32785U 08021C   26189.52665596  .00002960  00000+0  18803-3 0  9995
2 32785  97.8287 171.3930 0007504 326.7676  33.3080 15.09660225988418
CANX-2                  
1 32790U 08021H   26189.35478738  .00002762  00000+0  19504-3 0  9991
2 32790  97.8650 169.5464 0009503 341.9141  18.1746 15.05775425987993
SEEDS II (CO-66)        
1 32791U 08021J   26189.47840792  .00013473  00000+0  41831-3 0  9997
2 32791  97.7528 188.4040 0002290 172.4327 187.6949 15.33506492990556
SWISSCUBE               
1 35932U 09051B   26189.17253487  .00000734  00000+0  15442-3 0  9992
2 35932  98.4017  97.4251 0007478 138.1087 222.0687 14.62521876892227
BEESAT-1                
1 35933U 09051C   26189.53518679  .00000606  00000+0  13136-3 0  9996
2 35933  98.3944  97.3846 0005726 147.6322 212.5231 14.61755033892307
ITUPSAT1                
1 35935U 09051E   26189.54478970  .00000560  00000+0  12544-3 0  9999
2 35935  98.4027  96.5634 0007610 162.4704 197.6760 14.60472478891858
TISAT 1                 
1 36799U 10035E   26189.34319129  .00013368  00000+0  42781-3 0  9996
2 36799  98.0705 137.7820 0004035 133.6071 226.5504 15.32545934870949
STRAND-1                
1 39090U 13009E   26189.22094779  .00000210  00000+0  85061-4 0  9996
2 39090  98.3931   8.9384 0009008 160.5108 199.6425 14.37175978700089
BRITE-AUSTRIA           
1 39091U 13009F   26189.45189560  .00000122  00000+0  56086-4 0  9992
2 39091  98.4005   8.3622 0010347 170.0006 190.1389 14.36550587700103
NEE-01 PEGASO           
1 39151U 13018B   26188.89804107  .00001789  00000+0  17440-3 0  9997
2 39151  98.1251 333.7367 0013957  95.9045 264.3765 14.93770042713793
POPACS 2                
1 39269U 13055E   26189.24274161  .00012393 -88328-6  20236-3 0  9996
2 39269  80.9910 120.0851 0415514 126.1925 237.8477 14.91823858666354
POPACS 3                
1 39270U 13055F   26189.48606341  .00008965  00000+0  21220-3 0  9990
2 39270  80.9993 206.0862 0549621   5.1431 355.5089 14.56541276641654
ZACUBE-1 (TSHEPISOSAT)  
1 39417U 13066B   26188.93645073  .00001404  00000+0  11193-3 0  9998
2 39417  97.8020 151.3770 0043545 178.4838 181.6526 15.01306371683841
WNISAT-1                
1 39423U 13066H   26188.93602481  .00000973  00000+0  18457-3 0  9991
2 39423  97.7227 336.6221 0163391 166.0778 194.5009 14.58108160669753
TRITON-1                
1 39427U 13066M   26189.56761583  .00001119  00000+0  13897-3 0  9990
2 39427  97.8222  98.8863 0090059 163.6141 196.8017 14.81779032677255
GOMX-1                  
1 39430U 13066Q   26189.49850787  .00001039  00000+0  16192-3 0  9993
2 39430  97.6476  28.6162 0128873   9.7097 350.6555 14.69531389673044
CUBEBUG-2 (LO-74)       
1 39440U 13066AA  26189.29650490  .00001757  00000+0  16589-3 0  9998
2 39440  97.8910 138.3670 0056194 318.9114  40.7880 14.93939383680144
NEE-02 KRYSAOR          
1 39441U 13066AB  26189.27579641  .00001374  00000+0  15492-3 0  9992
2 39441  97.8887 128.3413 0066040   2.0720 358.0757 14.86719769679330
FUNCUBE-1 (AO-73)       
1 39444U 13066AE  26189.33367698  .00004760  00000+0  29429-3 0  9996
2 39444  97.8284 161.2250 0037706 130.0497 230.4049 15.09759525682857
UWE-3                   
1 39446U 13066AG  26189.33612893  .00001733  00000+0  15204-3 0  9991
2 39446  97.8696 145.5560 0047521 248.4998 111.1154 14.97171964680740
BRITE-CA1 (TORONTO)     
1 40020U 14033L   26188.82868349  .00000770  00000+0  12320-3 0  9994
2 40020  97.9764 317.3791 0077912 209.9563 149.7175 14.72712458645258
DUCHIFAT-1              
1 40021U 14033M   26189.41559852  .00107238  00000+0  89957-3 0  9994
2 40021  98.0445 251.6379 0001576 267.1459  92.9620 15.69597973659071
NANOSATC-BR1            
1 40024U 14033Q   26188.91332792  .00010617  00000+0  34456-3 0  9991
2 40024  98.0718 223.1467 0005282 113.6999 246.4796 15.32158355657155
QB50P1                  
1 40025U 14033R   26189.50144571  .00005677  00000+0  27786-3 0  9992
2 40025  98.0973 202.1461 0009934 144.4347 215.7549 15.18598212656267
QB50P2                  
1 40032U 14033Y   26189.42943333  .00004091  00000+0  22016-3 0  9994
2 40032  98.0761 187.6362 0009335 102.7470 257.4805 15.15446588655886
PERSEUS-M2              
1 40037U 14033AD  26189.54015817  .00001334  00000+0  12564-3 0  9993
2 40037  97.9965 140.5164 0010658 223.6618 136.3760 14.95573093653972
